STARLINK-36163          
1 67008U 25293F   25365.16668980 -.01571757  00000+0 -25099-1 0  9997
2 67008  70.0000 271.0213 0003113 273.7619 285.5722 15.56301977  3120
STARLINK-36118          
1 67009U 25293G   25365.16668980 -.01570750  00000+0 -25102-1 0  9995
2 67009  69.9999 271.0187 0003217 270.6066 290.7333 15.56277784  3069
STARLINK-36189          
1 67010U 25293H   25365.16668980 -.01551253  00000+0 -24789-1 0  9994
2 67010  70.0001 271.0139 0003231 274.1541 291.1388 15.56236574  3122
STARLINK-36167          
1 67011U 25293J   25365.16668980 -.01632718  00000+0 -25704-1 0  9999
2 67011  70.0036 271.0160 0003087 266.1742 297.1028 15.56289691  3066
STARLINK-36175          
1 67012U 25293K   25365.16668980 -.01569929  00000+0 -25126-1 0  9991
2 67012  70.0001 271.0117 0003216 272.9936 294.2515 15.56236389  3060
STARLINK-35856          
1 67013U 25293L   25365.16668980 -.01554236  00000+0 -24872-1 0  9994
2 67013  70.0001 271.0091 0003220 273.2413 296.0088 15.56205531  3061
STARLINK-36207          
1 67014U 25293M   25365.16668980 -.01577001  00000+0 -25290-1 0  9995
2 67014  70.0000 271.0072 0003196 273.1072 298.1258 15.56198028  3123
STARLINK-36093          
1 67015U 25293N   25365.16668980 -.01564163  00000+0 -25098-1 0  9997
2 67015  70.0000 271.0022 0003155 272.1741 303.0226 15.56156037  3064
STARLINK-36120          
1 67016U 25293P   25365.16668980 -.01566167  00000+0 -25112-1 0  9991
2 67016  70.0001 271.0044 0003184 274.7617 298.4398 15.56179387  3062
STARLINK-35498          
1 67017U 25293Q   25365.16668980 -.01558621  00000+0 -25015-1 0  9990
2 67017  69.9999 270.9996 0003183 272.3977 304.7766 15.56136674  3255
STARLINK-36106          
1 67018U 25293R   25365.16668980 -.01559776  00000+0 -25052-1 0  9994
2 67018  70.0001 270.9973 0003122 272.8481 306.3055 15.56120387  3170
STARLINK-35688          
1 67019U 25293S   25365.16668980 -.01557683  00000+0 -25028-1 0  9993
2 67019  69.9999 270.9948 0003050 271.6338 309.4828 15.56106170  3259
