CCSDS_OMM_VERS = 2.0
CREATION_DATE  = 
ORIGINATOR     = 

OBJECT_NAME    = STARLINK-36163
OBJECT_ID      = 2025-293F
CENTER_NAME    = EARTH
REF_FRAME      = TEME
TIME_SYSTEM    = UTC
MEAN_ELEMENT_THEORY = SGP/SGP4

EPOCH          = 2025-12-31T04:00:01.998720
MEAN_MOTION    = 15.56301977
ECCENTRICITY   = .0003113
INCLINATION    = 70.0000
RA_OF_ASC_NODE = 271.0213
ARG_OF_PERICENTER = 273.7619
MEAN_ANOMALY   = 285.5722

EPHEMERIS_TYPE = 0
CLASSIFICATION_TYPE = U
NORAD_CAT_ID   = 67008
ELEMENT_SET_NO = 999
REV_AT_EPOCH   = 312
BSTAR          = -.25099E-1
MEAN_MOTION_DOT = -.1571757E-1
MEAN_MOTION_DDOT = 0

CCSDS_OMM_VERS = 2.0
CREATION_DATE  = 
ORIGINATOR     = 

OBJECT_NAME    = STARLINK-36118
OBJECT_ID      = 2025-293G
CENTER_NAME    = EARTH
REF_FRAME      = TEME
TIME_SYSTEM    = UTC
MEAN_ELEMENT_THEORY = SGP/SGP4

EPOCH          = 2025-12-31T04:00:01.998720
MEAN_MOTION    = 15.56277784
ECCENTRICITY   = .0003217
INCLINATION    = 69.9999
RA_OF_ASC_NODE = 271.0187
ARG_OF_PERICENTER = 270.6066
MEAN_ANOMALY   = 290.7333

EPHEMERIS_TYPE = 0
CLASSIFICATION_TYPE = U
NORAD_CAT_ID   = 67009
ELEMENT_SET_NO = 999
REV_AT_EPOCH   = 306
BSTAR          = -.25102E-1
MEAN_MOTION_DOT = -.157075E-1
MEAN_MOTION_DDOT = 0

CCSDS_OMM_VERS = 2.0
CREATION_DATE  = 
ORIGINATOR     = 

OBJECT_NAME    = STARLINK-36189
OBJECT_ID      = 2025-293H
CENTER_NAME    = EARTH
REF_FRAME      = TEME
TIME_SYSTEM    = UTC
MEAN_ELEMENT_THEORY = SGP/SGP4

EPOCH          = 2025-12-31T04:00:01.998720
MEAN_MOTION    = 15.56236574
ECCENTRICITY   = .0003231
INCLINATION    = 70.0001
RA_OF_ASC_NODE = 271.0139
ARG_OF_PERICENTER = 274.1541
MEAN_ANOMALY   = 291.1388

EPHEMERIS_TYPE = 0
CLASSIFICATION_TYPE = U
NORAD_CAT_ID   = 67010
ELEMENT_SET_NO = 999
REV_AT_EPOCH   = 312
BSTAR          = -.24789E-1
MEAN_MOTION_DOT = -.1551253E-1
MEAN_MOTION_DDOT = 0

CCSDS_OMM_VERS = 2.0
CREATION_DATE  = 
ORIGINATOR     = 

OBJECT_NAME    = STARLINK-36167
OBJECT_ID      = 2025-293J
CENTER_NAME    = EARTH
REF_FRAME      = TEME
TIME_SYSTEM    = UTC
MEAN_ELEMENT_THEORY = SGP/SGP4

EPOCH          = 2025-12-31T04:00:01.998720
MEAN_MOTION    = 15.56289691
ECCENTRICITY   = .0003087
INCLINATION    = 70.0036
RA_OF_ASC_NODE = 271.0160
ARG_OF_PERICENTER = 266.1742
MEAN_ANOMALY   = 297.1028

EPHEMERIS_TYPE = 0
CLASSIFICATION_TYPE = U
NORAD_CAT_ID   = 67011
ELEMENT_SET_NO = 999
REV_AT_EPOCH   = 306
BSTAR          = -.25704E-1
MEAN_MOTION_DOT = -.1632718E-1
MEAN_MOTION_DDOT = 0

CCSDS_OMM_VERS = 2.0
CREATION_DATE  = 
ORIGINATOR     = 

OBJECT_NAME    = STARLINK-36175
OBJECT_ID      = 2025-293K
CENTER_NAME    = EARTH
REF_FRAME      = TEME
TIME_SYSTEM    = UTC
MEAN_ELEMENT_THEORY = SGP/SGP4

EPOCH          = 2025-12-31T04:00:01.998720
MEAN_MOTION    = 15.56236389
ECCENTRICITY   = .0003216
INCLINATION    = 70.0001
RA_OF_ASC_NODE = 271.0117
ARG_OF_PERICENTER = 272.9936
MEAN_ANOMALY   = 294.2515

EPHEMERIS_TYPE = 0
CLASSIFICATION_TYPE = U
NORAD_CAT_ID   = 67012
ELEMENT_SET_NO = 999
REV_AT_EPOCH   = 306
BSTAR          = -.25126E-1
MEAN_MOTION_DOT = -.1569929E-1
MEAN_MOTION_DDOT = 0

CCSDS_OMM_VERS = 2.0
CREATION_DATE  = 
ORIGINATOR     = 

OBJECT_NAME    = STARLINK-35856
OBJECT_ID      = 2025-293L
CENTER_NAME    = EARTH
REF_FRAME      = TEME
TIME_SYSTEM    = UTC
MEAN_ELEMENT_THEORY = SGP/SGP4

EPOCH          = 2025-12-31T04:00:01.998720
MEAN_MOTION    = 15.56205531
ECCENTRICITY   = .000322
INCLINATION    = 70.0001
RA_OF_ASC_NODE = 271.0091
ARG_OF_PERICENTER = 273.2413
MEAN_ANOMALY   = 296.0088

EPHEMERIS_TYPE = 0
CLASSIFICATION_TYPE = U
NORAD_CAT_ID   = 67013
ELEMENT_SET_NO = 999
REV_AT_EPOCH   = 306
BSTAR          = -.24872E-1
MEAN_MOTION_DOT = -.1554236E-1
MEAN_MOTION_DDOT = 0

CCSDS_OMM_VERS = 2.0
CREATION_DATE  = 
ORIGINATOR     = 

OBJECT_NAME    = STARLINK-36207
OBJECT_ID      = 2025-293M
CENTER_NAME    = EARTH
REF_FRAME      = TEME
TIME_SYSTEM    = UTC
MEAN_ELEMENT_THEORY = SGP/SGP4

EPOCH          = 2025-12-31T04:00:01.998720
MEAN_MOTION    = 15.56198028
ECCENTRICITY   = .0003196
INCLINATION    = 70.0000
RA_OF_ASC_NODE = 271.0072
ARG_OF_PERICENTER = 273.1072
MEAN_ANOMALY   = 298.1258

EPHEMERIS_TYPE = 0
CLASSIFICATION_TYPE = U
NORAD_CAT_ID   = 67014
ELEMENT_SET_NO = 999
REV_AT_EPOCH   = 312
BSTAR          = -.2529E-1
MEAN_MOTION_DOT = -.1577001E-1
MEAN_MOTION_DDOT = 0

CCSDS_OMM_VERS = 2.0
CREATION_DATE  = 
ORIGINATOR     = 

OBJECT_NAME    = STARLINK-36093
OBJECT_ID      = 2025-293N
CENTER_NAME    = EARTH
REF_FRAME      = TEME
TIME_SYSTEM    = UTC
MEAN_ELEMENT_THEORY = SGP/SGP4

EPOCH          = 2025-12-31T04:00:01.998720
MEAN_MOTION    = 15.56156037
ECCENTRICITY   = .0003155
INCLINATION    = 70.0000
RA_OF_ASC_NODE = 271.0022
ARG_OF_PERICENTER = 272.1741
MEAN_ANOMALY   = 303.0226

EPHEMERIS_TYPE = 0
CLASSIFICATION_TYPE = U
NORAD_CAT_ID   = 67015
ELEMENT_SET_NO = 999
REV_AT_EPOCH   = 306
BSTAR          = -.25098E-1
MEAN_MOTION_DOT = -.1564163E-1
MEAN_MOTION_DDOT = 0

CCSDS_OMM_VERS = 2.0
CREATION_DATE  = 
ORIGINATOR     = 

OBJECT_NAME    = STARLINK-36120
OBJECT_ID      = 2025-293P
CENTER_NAME    = EARTH
REF_FRAME      = TEME
TIME_SYSTEM    = UTC
MEAN_ELEMENT_THEORY = SGP/SGP4

EPOCH          = 2025-12-31T04:00:01.998720
MEAN_MOTION    = 15.56179387
ECCENTRICITY   = .0003184
INCLINATION    = 70.0001
RA_OF_ASC_NODE = 271.0044
ARG_OF_PERICENTER = 274.7617
MEAN_ANOMALY   = 298.4398

EPHEMERIS_TYPE = 0
CLASSIFICATION_TYPE = U
NORAD_CAT_ID   = 67016
ELEMENT_SET_NO = 999
REV_AT_EPOCH   = 306
BSTAR          = -.25112E-1
MEAN_MOTION_DOT = -.1566167E-1
MEAN_MOTION_DDOT = 0

CCSDS_OMM_VERS = 2.0
CREATION_DATE  = 
ORIGINATOR     = 

OBJECT_NAME    = STARLINK-35498
OBJECT_ID      = 2025-293Q
CENTER_NAME    = EARTH
REF_FRAME      = TEME
TIME_SYSTEM    = UTC
MEAN_ELEMENT_THEORY = SGP/SGP4

EPOCH          = 2025-12-31T04:00:01.998720
MEAN_MOTION    = 15.56136674
ECCENTRICITY   = .0003183
INCLINATION    = 69.9999
RA_OF_ASC_NODE = 270.9996
ARG_OF_PERICENTER = 272.3977
MEAN_ANOMALY   = 304.7766

EPHEMERIS_TYPE = 0
CLASSIFICATION_TYPE = U
NORAD_CAT_ID   = 67017
ELEMENT_SET_NO = 999
REV_AT_EPOCH   = 325
BSTAR          = -.25015E-1
MEAN_MOTION_DOT = -.1558621E-1
MEAN_MOTION_DDOT = 0

CCSDS_OMM_VERS = 2.0
CREATION_DATE  = 
ORIGINATOR     = 

OBJECT_NAME    = STARLINK-36106
OBJECT_ID      = 2025-293R
CENTER_NAME    = EARTH
REF_FRAME      = TEME
TIME_SYSTEM    = UTC
MEAN_ELEMENT_THEORY = SGP/SGP4

EPOCH          = 2025-12-31T04:00:01.998720
MEAN_MOTION    = 15.56120387
ECCENTRICITY   = .0003122
INCLINATION    = 70.0001
RA_OF_ASC_NODE = 270.9973
ARG_OF_PERICENTER = 272.8481
MEAN_ANOMALY   = 306.3055

EPHEMERIS_TYPE = 0
CLASSIFICATION_TYPE = U
NORAD_CAT_ID   = 67018
ELEMENT_SET_NO = 999
REV_AT_EPOCH   = 317
BSTAR          = -.25052E-1
MEAN_MOTION_DOT = -.1559776E-1
MEAN_MOTION_DDOT = 0

CCSDS_OMM_VERS = 2.0
CREATION_DATE  = 
ORIGINATOR     = 

OBJECT_NAME    = STARLINK-35688
OBJECT_ID      = 2025-293S
CENTER_NAME    = EARTH
REF_FRAME      = TEME
TIME_SYSTEM    = UTC
MEAN_ELEMENT_THEORY = SGP/SGP4

EPOCH          = 2025-12-31T04:00:01.998720
MEAN_MOTION    = 15.56106170
ECCENTRICITY   = .000305
INCLINATION    = 69.9999
RA_OF_ASC_NODE = 270.9948
ARG_OF_PERICENTER = 271.6338
MEAN_ANOMALY   = 309.4828

EPHEMERIS_TYPE = 0
CLASSIFICATION_TYPE = U
NORAD_CAT_ID   = 67019
ELEMENT_SET_NO = 999
REV_AT_EPOCH   = 325
BSTAR          = -.25028E-1
MEAN_MOTION_DOT = -.1557683E-1
MEAN_MOTION_DDOT = 0

